LEMUR-2-AMANDA-SVANTE   
1 48269U 21034B   26068.77637527  .00030872  00000+0  11134-2 0  9996
2 48269  97.5829 144.8625 0002703 205.4721 154.6385 15.28469003265849
STARLINK-34616          
1 66320U 25253B   26068.72021285  .00041047  00000+0  14923-2 0  9999
2 66320  43.0023 211.9475 0001173 258.2993 101.7727 15.27592386 20331
